[{"OBJECT_NAME":"STARLINK-32007","OBJECT_ID":"2024-117D","EPOCH":"2025-11-16T22:47:10.352832","MEAN_MOTION":15.30206178,"ECCENTRICITY":0.00010271,"INCLINATION":53.159,"RA_OF_ASC_NODE":200.9215,"ARG_OF_PERICENTER":75.9705,"MEAN_ANOMALY":284.141,"EPHEMERIS_TYPE":0,"CLASSIFICATION_TYPE":"U","NORAD_CAT_ID":60094,"ELEMENT_SET_NO":999,"REV_AT_EPOCH":7962,"BSTAR":-6.8970019e-5,"MEAN_MOTION_DOT":-2.401e-5,"MEAN_MOTION_DDOT":0},{"OBJECT_NAME":"STARLINK-32028","OBJECT_ID":"2024-117E","EPOCH":"2025-11-17T09:31:51.549024","MEAN_MOTION":15.30233098,"ECCENTRICITY":0.0001012,"INCLINATION":53.1589,"RA_OF_ASC_NODE":198.7365,"ARG_OF_PERICENTER":60.6019,"MEAN_ANOMALY":299.5082,"EPHEMERIS_TYPE":0,"CLASSIFICATION_TYPE":"U","NORAD_CAT_ID":60095,"ELEMENT_SET_NO":999,"REV_AT_EPOCH":7969,"BSTAR":-0.00016396,"MEAN_MOTION_DOT":-5.217e-5,"MEAN_MOTION_DDOT":0},{"OBJECT_NAME":"STARLINK-32016","OBJECT_ID":"2024-117F","EPOCH":"2025-11-16T16:44:38.534208","MEAN_MOTION":15.30209125,"ECCENTRICITY":9.245e-5,"INCLINATION":53.1585,"RA_OF_ASC_NODE":202.1952,"ARG_OF_PERICENTER":85.1778,"MEAN_ANOMALY":274.9328,"EPHEMERIS_TYPE":0,"CLASSIFICATION_TYPE":"U","NORAD_CAT_ID":60096,"ELEMENT_SET_NO":999,"REV_AT_EPOCH":7958,"BSTAR":9.1835618e-5,"MEAN_MOTION_DOT":2.363e-5,"MEAN_MOTION_DDOT":0},{"OBJECT_NAME":"STARLINK-32003","OBJECT_ID":"2024-117G","EPOCH":"2025-11-17T09:12:07.410240","MEAN_MOTION":15.30199724,"ECCENTRICITY":0.0001432,"INCLINATION":53.1605,"RA_OF_ASC_NODE":198.6493,"ARG_OF_PERICENTER":90.6909,"MEAN_ANOMALY":269.4256,"EPHEMERIS_TYPE":0,"CLASSIFICATION_TYPE":"U","NORAD_CAT_ID":60097,"ELEMENT_SET_NO":999,"REV_AT_EPOCH":7969,"BSTAR":0.00060046,"MEAN_MOTION_DOT":0.00017466,"MEAN_MOTION_DDOT":0},{"OBJECT_NAME":"STARLINK-32026","OBJECT_ID":"2024-117H","EPOCH":"2025-11-17T09:25:47.159616","MEAN_MOTION":15.30196448,"ECCENTRICITY":0.0002435,"INCLINATION":53.1603,"RA_OF_ASC_NODE":198.7091,"ARG_OF_PERICENTER":80.802,"MEAN_ANOMALY":279.3256,"EPHEMERIS_TYPE":0,"CLASSIFICATION_TYPE":"U","NORAD_CAT_ID":60098,"ELEMENT_SET_NO":999,"REV_AT_EPOCH":7969,"BSTAR":-7.5177e-5,"MEAN_MOTION_DOT":-2.586e-5,"MEAN_MOTION_DDOT":0},{"OBJECT_NAME":"STARLINK-31732","OBJECT_ID":"2024-117J","EPOCH":"2025-11-17T08:38:44.028384","MEAN_MOTION":15.30166553,"ECCENTRICITY":0.0001174,"INCLINATION":53.1592,"RA_OF_ASC_NODE":198.5031,"ARG_OF_PERICENTER":80.7993,"MEAN_ANOMALY":279.314,"EPHEMERIS_TYPE":0,"CLASSIFICATION_TYPE":"U","NORAD_CAT_ID":60099,"ELEMENT_SET_NO":999,"REV_AT_EPOCH":7969,"BSTAR":-0.00012042,"MEAN_MOTION_DOT":-3.92e-5,"MEAN_MOTION_DDOT":0},{"OBJECT_NAME":"STARLINK-31996","OBJECT_ID":"2024-117K","EPOCH":"2025-11-17T08:58:26.806368","MEAN_MOTION":15.30201244,"ECCENTRICITY":0.000132,"INCLINATION":53.1602,"RA_OF_ASC_NODE":198.5889,"ARG_OF_PERICENTER":87.7872,"MEAN_ANOMALY":272.328,"EPHEMERIS_TYPE":0,"CLASSIFICATION_TYPE":"U","NORAD_CAT_ID":60100,"ELEMENT_SET_NO":999,"REV_AT_EPOCH":7969,"BSTAR":-7.8561e-5,"MEAN_MOTION_DOT":-2.685e-5,"MEAN_MOTION_DDOT":0},{"OBJECT_NAME":"STARLINK-31999","OBJECT_ID":"2024-117L","EPOCH":"2025-11-16T23:05:26.644416","MEAN_MOTION":15.3018337,"ECCENTRICITY":0.00016104,"INCLINATION":53.1595,"RA_OF_ASC_NODE":200.9982,"ARG_OF_PERICENTER":81.5014,"MEAN_ANOMALY":278.6169,"EPHEMERIS_TYPE":0,"CLASSIFICATION_TYPE":"U","NORAD_CAT_ID":60101,"ELEMENT_SET_NO":999,"REV_AT_EPOCH":7962,"BSTAR":-0.0001459856,"MEAN_MOTION_DOT":-4.678e-5,"MEAN_MOTION_DDOT":0},{"OBJECT_NAME":"STARLINK-31954","OBJECT_ID":"2024-117M","EPOCH":"2025-11-16T16:40:04.768032","MEAN_MOTION":15.30206657,"ECCENTRICITY":0.00016771,"INCLINATION":53.159,"RA_OF_ASC_NODE":202.1735,"ARG_OF_PERICENTER":95.2624,"MEAN_ANOMALY":264.8569,"EPHEMERIS_TYPE":0,"CLASSIFICATION_TYPE":"U","NORAD_CAT_ID":60102,"ELEMENT_SET_NO":999,"REV_AT_EPOCH":7958,"BSTAR":-2.2892394e-5,"MEAN_MOTION_DOT":-1.038e-5,"MEAN_MOTION_DDOT":0},{"OBJECT_NAME":"STARLINK-32013","OBJECT_ID":"2024-117N","EPOCH":"2025-11-16T22:51:44.252928","MEAN_MOTION":15.30235914,"ECCENTRICITY":0.00011809,"INCLINATION":53.1588,"RA_OF_ASC_NODE":200.9406,"ARG_OF_PERICENTER":83.0522,"MEAN_ANOMALY":277.0613,"EPHEMERIS_TYPE":0,"CLASSIFICATION_TYPE":"U","NORAD_CAT_ID":60103,"ELEMENT_SET_NO":999,"REV_AT_EPOCH":7962,"BSTAR":0.0015168768,"MEAN_MOTION_DOT":0.00044888,"MEAN_MOTION_DDOT":0},{"OBJECT_NAME":"STARLINK-32009","OBJECT_ID":"2024-117P","EPOCH":"2025-11-17T08:34:17.177664","MEAN_MOTION":15.30202069,"ECCENTRICITY":0.000121,"INCLINATION":53.1578,"RA_OF_ASC_NODE":199.1726,"ARG_OF_PERICENTER":81.6131,"MEAN_ANOMALY":278.5007,"EPHEMERIS_TYPE":0,"CLASSIFICATION_TYPE":"U","NORAD_CAT_ID":60104,"ELEMENT_SET_NO":999,"REV_AT_EPOCH":7968,"BSTAR":0.00048261,"MEAN_MOTION_DOT":0.00013962,"MEAN_MOTION_DDOT":0},{"OBJECT_NAME":"STARLINK-32018","OBJECT_ID":"2024-117Q","EPOCH":"2025-11-17T09:36:25.767072","MEAN_MOTION":15.30200454,"ECCENTRICITY":0.0001487,"INCLINATION":53.1606,"RA_OF_ASC_NODE":198.7539,"ARG_OF_PERICENTER":102.4729,"MEAN_ANOMALY":257.6438,"EPHEMERIS_TYPE":0,"CLASSIFICATION_TYPE":"U","NORAD_CAT_ID":60105,"ELEMENT_SET_NO":999,"REV_AT_EPOCH":7969,"BSTAR":0.00024037,"MEAN_MOTION_DOT":6.766e-5,"MEAN_MOTION_DDOT":0},{"OBJECT_NAME":"STARLINK-32045","OBJECT_ID":"2024-117R","EPOCH":"2025-11-17T09:40:59.814912","MEAN_MOTION":15.30198279,"ECCENTRICITY":0.0001332,"INCLINATION":53.1604,"RA_OF_ASC_NODE":198.775,"ARG_OF_PERICENTER":89.897,"MEAN_ANOMALY":270.2183,"EPHEMERIS_TYPE":0,"CLASSIFICATION_TYPE":"U","NORAD_CAT_ID":60106,"ELEMENT_SET_NO":999,"REV_AT_EPOCH":7969,"BSTAR":-4.2675e-5,"MEAN_MOTION_DOT":-1.623e-5,"MEAN_MOTION_DDOT":0},{"OBJECT_NAME":"STARLINK-32035","OBJECT_ID":"2024-117S","EPOCH":"2025-11-17T09:21:14.660928","MEAN_MOTION":15.30195192,"ECCENTRICITY":0.0001373,"INCLINATION":53.1602,"RA_OF_ASC_NODE":198.6876,"ARG_OF_PERICENTER":86.6094,"MEAN_ANOMALY":273.5063,"EPHEMERIS_TYPE":0,"CLASSIFICATION_TYPE":"U","NORAD_CAT_ID":60107,"ELEMENT_SET_NO":999,"REV_AT_EPOCH":7969,"BSTAR":-6.8902e-5,"MEAN_MOTION_DOT":-2.399e-5,"MEAN_MOTION_DDOT":0},{"OBJECT_NAME":"STARLINK-32042","OBJECT_ID":"2024-117T","EPOCH":"2025-11-16T23:43:15.104064","MEAN_MOTION":15.30190888,"ECCENTRICITY":0.00013246,"INCLINATION":53.1612,"RA_OF_ASC_NODE":200.4477,"ARG_OF_PERICENTER":93.7552,"MEAN_ANOMALY":266.3601,"EPHEMERIS_TYPE":0,"CLASSIFICATION_TYPE":"U","NORAD_CAT_ID":60108,"ELEMENT_SET_NO":999,"REV_AT_EPOCH":7963,"BSTAR":-1.8780472e-5,"MEAN_MOTION_DOT":-9.15e-6,"MEAN_MOTION_DDOT":0},{"OBJECT_NAME":"STARLINK-32040","OBJECT_ID":"2024-117U","EPOCH":"2025-11-16T17:01:11.538048","MEAN_MOTION":15.30201505,"ECCENTRICITY":9.702e-5,"INCLINATION":53.1594,"RA_OF_ASC_NODE":201.5549,"ARG_OF_PERICENTER":90.1149,"MEAN_ANOMALY":269.9963,"EPHEMERIS_TYPE":0,"CLASSIFICATION_TYPE":"U","NORAD_CAT_ID":60109,"ELEMENT_SET_NO":999,"REV_AT_EPOCH":7959,"BSTAR":5.7882773e-5,"MEAN_MOTION_DOT":1.356e-5,"MEAN_MOTION_DDOT":0},{"OBJECT_NAME":"STARLINK-32001","OBJECT_ID":"2024-117V","EPOCH":"2025-11-17T08:53:52.933920","MEAN_MOTION":15.30206502,"ECCENTRICITY":0.0001038,"INCLINATION":53.159,"RA_OF_ASC_NODE":198.5688,"ARG_OF_PERICENTER":87.5734,"MEAN_ANOMALY":272.5386,"EPHEMERIS_TYPE":0,"CLASSIFICATION_TYPE":"U","NORAD_CAT_ID":60110,"ELEMENT_SET_NO":999,"REV_AT_EPOCH":7969,"BSTAR":0.00067516,"MEAN_MOTION_DOT":0.00019694,"MEAN_MOTION_DDOT":0},{"OBJECT_NAME":"STARLINK-32015","OBJECT_ID":"2024-117W","EPOCH":"2025-11-16T17:04:14.053728","MEAN_MOTION":15.30214526,"ECCENTRICITY":0.00011617,"INCLINATION":53.1589,"RA_OF_ASC_NODE":201.5619,"ARG_OF_PERICENTER":101.0663,"MEAN_ANOMALY":259.0469,"EPHEMERIS_TYPE":0,"CLASSIFICATION_TYPE":"U","NORAD_CAT_ID":60111,"ELEMENT_SET_NO":999,"REV_AT_EPOCH":7959,"BSTAR":-7.2606897e-5,"MEAN_MOTION_DOT":-2.51e-5,"MEAN_MOTION_DDOT":0},{"OBJECT_NAME":"STARLINK-32024","OBJECT_ID":"2024-117X","EPOCH":"2025-11-17T09:03:00.009216","MEAN_MOTION":15.30196842,"ECCENTRICITY":0.0001066,"INCLINATION":53.1606,"RA_OF_ASC_NODE":198.6056,"ARG_OF_PERICENTER":83.7448,"MEAN_ANOMALY":276.3675,"EPHEMERIS_TYPE":0,"CLASSIFICATION_TYPE":"U","NORAD_CAT_ID":60112,"ELEMENT_SET_NO":999,"REV_AT_EPOCH":7969,"BSTAR":0.00010101,"MEAN_MOTION_DOT":2.633e-5,"MEAN_MOTION_DDOT":0},{"OBJECT_NAME":"STARLINK-11201 [DTC]","OBJECT_ID":"2024-118A","EPOCH":"2025-11-17T11:16:51.024864","MEAN_MOTION":15.69699649,"ECCENTRICITY":8.84e-5,"INCLINATION":53.1582,"RA_OF_ASC_NODE":54.7849,"ARG_OF_PERICENTER":102.8242,"MEAN_ANOMALY":257.2874,"EPHEMERIS_TYPE":0,"CLASSIFICATION_TYPE":"U","NORAD_CAT_ID":60113,"ELEMENT_SET_NO":999,"REV_AT_EPOCH":8036,"BSTAR":-1.6252e-5,"MEAN_MOTION_DOT":-2.556e-5,"MEAN_MOTION_DDOT":0},{"OBJECT_NAME":"STARLINK-11198 [DTC]","OBJECT_ID":"2024-118B","EPOCH":"2025-11-16T16:49:34.546656","MEAN_MOTION":15.69662837,"ECCENTRICITY":0.00011727,"INCLINATION":53.1614,"RA_OF_ASC_NODE":58.5169,"ARG_OF_PERICENTER":77.3229,"MEAN_ANOMALY":282.792,"EPHEMERIS_TYPE":0,"CLASSIFICATION_TYPE":"U","NORAD_CAT_ID":60114,"ELEMENT_SET_NO":999,"REV_AT_EPOCH":8024,"BSTAR":0.00010810574,"MEAN_MOTION_DOT":0.00012502,"MEAN_MOTION_DDOT":0},{"OBJECT_NAME":"STARLINK-11112 [DTC]","OBJECT_ID":"2024-118C","EPOCH":"2025-11-17T11:02:42.722016","MEAN_MOTION":15.69710075,"ECCENTRICITY":0.0001035,"INCLINATION":53.16,"RA_OF_ASC_NODE":54.7198,"ARG_OF_PERICENTER":100.6765,"MEAN_ANOMALY":259.437,"EPHEMERIS_TYPE":0,"CLASSIFICATION_TYPE":"U","NORAD_CAT_ID":60115,"ELEMENT_SET_NO":999,"REV_AT_EPOCH":8036,"BSTAR":2.7183e-5,"MEAN_MOTION_DOT":2.706e-5,"MEAN_MOTION_DDOT":0},{"OBJECT_NAME":"STARLINK-11210 [DTC]","OBJECT_ID":"2024-118D","EPOCH":"2025-11-17T10:55:38.810784","MEAN_MOTION":15.69716551,"ECCENTRICITY":0.0001065,"INCLINATION":53.1582,"RA_OF_ASC_NODE":54.6842,"ARG_OF_PERICENTER":81.8141,"MEAN_ANOMALY":278.2998,"EPHEMERIS_TYPE":0,"CLASSIFICATION_TYPE":"U","NORAD_CAT_ID":60116,"ELEMENT_SET_NO":999,"REV_AT_EPOCH":8036,"BSTAR":0.00017862,"MEAN_MOTION_DOT":0.00021111,"MEAN_MOTION_DDOT":0}]
